address,latitude,longitude,name,tel1,tel2
谢家湾正街47号附46号,29.516828,106.516999,千鼎租车,023-86763999,
华岩寺路20号附近,29.493353,106.448307,久航租车,,
红锦大道567号米格尔酒店,29.606132,106.518704,米格尔·宜嘉酒店-租车服务,023-67622000,
港城东环路6,29.628181,106.664333,盼达用车(寸滩港城东路店),,
青龙路291号西南70米,30.931172,108.695255,顺意汽车租赁,023-55119886,18523291133
科城路166号协信彩云湖1号3期附近,29.512713,106.478465,婚庆租车,,
跃进路北50米,29.494630,106.493084,铄灵租车,,
江北国际机场T2航站楼对面,29.719203,106.635231,盼达用车,,
火炬一路,29.503287,106.488233,飞浩租车,,
金源路64号附12号,29.560663,106.529578,地中装网约车,023-68821192,
八一路218号雅地天际18层,29.555580,106.576942,华厦汽车租赁有限公司票务中心,,
长福路179号,29.679717,106.593482,同舟汽车租赁(渝北项目部),13883151807,18183110168
三湾路16号附25号2-37,29.568685,106.515589,共资租车,023-67115123,15223280180
人民西路1号AC世纪城5幢,29.349765,105.930076,鼎炫汽车租赁公司,023-49888123,
白鹤路渝南二手车市场B29,29.516592,106.546087,一笑汽车服务有限公司,17823999311,
新溉大道251号(力帆棠悦售楼中心对面),29.600470,106.536642,盼达用车(力帆棠悦),,
桃园路160号附146号,29.513385,106.547542,名尚汽车租赁,023-62390089,
马王乡龙泉村55号附1号,29.496145,106.483894,赛维斯汽车服务有限公司,,
白鹤路美全世纪城4.5栋1-33,29.516119,106.547759,途安租车,023-62770700,
西郊路附近,29.491798,106.502965,启顺租车,,
金渝大道56号附96号,29.645242,106.564700,陆航租车,023-63421366,15922910299
杨家坪西城天街A座25层13号,29.510261,106.517956,重庆灵宇汽车租赁有限公司,18680811197,
红锦大道57号嘉州协信中心B栋617,29.589336,106.524078,重庆车佳汇汽车租赁有限公司,023-81304031,
龙州大道10号(风花树)红绿灯旁,29.386434,106.537160,艾宜租车,,
红黄路90号中北商务大楼B座6层,29.585935,106.532228,重庆市出租汽车有限责任公司汽车租赁,023-67525800,
公园北路230号附7号,29.394300,106.539994,百分百租车,17783852717,
欧簏花圆剑桥郡,29.461496,106.622814,满天星,13308336203,
龙洲大道,29.405371,106.537015,颂车小站(05016),,
金剑路500号14幢13号(原杜鹃6栋13号),29.560871,106.230015,乐用租车(璧山店),023-41463446,17723536423
云锦路307附18号附近,29.372458,106.503678,众慕租车,,
龙头寺天宫大道97号附22号,29.600867,106.551066,尚益达租车(龙头寺分店),023-67880076,023-60368615
永盛路附近,29.593204,106.375306,海泰汽车租赁,,
兴塘路2号附5号,29.503982,106.652050,颂车小站(01026),4000450968,
鸳鸯北路18-3号附近,29.665223,106.556947,客来好租车,,
南区路160号南园大酒店1-2层,29.551400,106.553646,重庆大明汽车租赁有限公司,023-63601618,
渝南大道万达广场楼上,29.399609,106.544010,巴南恒初租车公司,13996135271,
龙海大道3幢6号南70米,29.399303,106.538263,金美租车,,
光彩大道368号鸿达宾馆旁,29.387124,105.883315,盟盟同行租车,,
通江大道附近,29.505288,106.654559,大方租车,,
红黄路445号七彩空间1栋16-6,29.586392,106.544121,重庆协程租车公司,023-67876715,4000022139
西华路与铝城四路交叉口北50米,29.300564,106.327739,奇缘汽车租赁,15320512569,18983474576
旗山路250-1号附近,29.591184,106.490810,傲冠租车,023-67584311,
星汇两江艺术商业中心1区广场,29.617079,106.502541,盼达用车(星汇两江),,
宏声路36号20附近,29.531072,106.572361,吉强租车,13983011575,
江南大道8号-附17号,29.525589,106.569334,南坪宝晟源租车公司,13308395939,
松石支路206附近,29.592181,106.502463,欣驰租车(大龙山店),,
南湖路18号,29.515767,106.569115,凯尊租车,13883979299,
天宫大道97附22号,29.600947,106.551168,柒月租车(龙头寺店),,
江南大道69号海德酒店,29.520349,106.575676,南坪辉梦租车,,
龙溪街道松牌路149号附4号,29.596673,106.517627,途牛租车,13368212223,
杨梨路206附近,29.553101,106.439719,大方租车,,
"移动商店,出租车正规出租车",29.553666,106.573905,二娃车车,15111806111,
盘溪三支路3号附近,29.593590,106.481932,宜帆租车,,
洋河北路9号附4号,29.586170,106.536903,亮典租车,023-86716021,
钢花路1032号,29.469847,106.485641,重庆名艺汽车租赁,18580029132,
建新东路81号-西40米附近,29.579210,106.556516,田雨租车,13983097462,
李家沱融汇半岛融汇大道56号,29.467452,106.516447,弹个车体验店融汇大道,18723332246,
桂南大道1附7附近,30.318438,107.339245,兄弟租车行,18225233118,
云江大道1732号附近,30.936787,108.693346,鸿途汽车租凭,,
南宾镇二环路万寿大道47号,29.994913,108.120268,平安汽车有限公司租赁部,,
洋河路74附近,29.578816,106.541846,勇程租车,,
石子山体育公园北门2号岗室外停车场,29.605267,106.490360,盼达用车(石子山体育公园),,
环球广场九楼E2-3,29.558865,106.546471,锐雯汽车租赁有限公司,,
松石支路与龙山三路交叉口西150米,29.595218,106.500737,神州租车,4006166666,
朝阳路6号附近,29.517061,106.453419,递谊租车,,
杨公桥与杨梨路交叉口西南100米,29.562495,106.447757,陆裕汽车租赁,,
人民路197号附近,29.559641,106.550885,帷幄租车,,
经开区南湖路26号10幢1-13号,29.513309,106.566694,乐淘租车,023-62771116,
红石路3-10号西南70米,29.582036,106.520149,头等舱租车,18623459119,
松石大道119号附近,29.582857,106.501834,OTOT租车,,
沙坪坝站西路,29.555198,106.452098,瓦尔塔电池汽车租赁,,
南兴路228号-附23号附近,29.519929,106.571718,拉恩租车,,
龙吟支路和龙吟路的交叉口附近,29.493545,106.542074,狼群汽车租赁,,
金开大道两江天地迪卡侬前,29.624816,106.530334,盼达用车(两江天地),,
红黄路89号中北大楼临街门面,29.586107,106.532263,市租租赁,,
康园路1号附近,29.600935,106.529857,启达租车,,
黄桷坪正街建新路黄桷坪正街停车场建新路,29.489783,106.543744,黄桷坪川美,,
江南大道8号-附4号,29.526603,106.568682,南坪恒初租车公司,13996135271,
龙山大道188附近,29.588861,106.499416,永鼎租车,,
江南大道8号-附22号,29.524861,106.569867,重庆凯利捷租车,18983352070,
107省道与208省道交叉口南150米,29.265232,106.231398,珠峰汽车租贸,,
大庙村附近,29.972593,106.406260,绿领租车,,
几江街道泡桐树街8号,29.278708,106.255674,双天汽车租赁,,
江南大道35号山河大厦,29.523720,106.572622,中远租车行,023-89816386,023-66640759
泡桐树街,29.276402,106.255630,臻畅汽车租赁,,
昌州大道西段107附近,29.366285,105.887386,旺川汽车租赁公司,,
滨江大道西段133号附近,29.281202,106.247587,神州租车,,
光彩大道与G85渝昆高速交叉口东北50米,29.370892,105.877191,千里达租车行,,
德感正街17附近,29.276470,106.235592,德感汽车租赁,,
白塔支路与白塔路交叉口西150米,29.980325,106.273582,神州租车,,
金开大道1791号,29.685685,106.572903,一嗨租车(翠云轻轨站送车点),,
大洪河正街与长洪公路交叉口北150米,30.002353,106.960078,乐泰汽车租赁,,
滨江大道附近,29.702616,107.408023,汽车租赁,,
回龙路三号楼疾控中心旁,29.044238,106.644383,跃海汽车租赁,,
和顺大道381附近,29.365159,105.950968,HY&徐豪车租赁,,
滨河大道附近,29.039866,106.684226,顺鑫汽车租赁有限公司,,
金川大道电子园公寓L号门,29.840603,106.088645,瑞程汽车租赁有限公司,,
龙城大道,29.851791,106.080229,运安汽车租赁,,
大新街105附1号附近,29.253730,106.981081,李小姐的店,,
迎宾路258附近,29.828914,106.056144,龙吉汽车租赁有限公司,,
巴川街道办事处云龙街94号,29.837583,106.054014,琦琦汽车租赁,023-45686565,15310192029
建兰路与石新路交叉口西50米,29.518806,106.456655,快诺汽车租赁,,
鲁能大道666号鲁能星城9街区A区麦当劳门口,29.594982,106.560387,一嗨租车(鲁能星城送车点),023-63067217,
科技大道120号,29.509077,106.458694,盼达用车(康田西锦),,
黄山大道中段星汇两江旁,29.616617,106.502420,一嗨租车（光电园送车点）,023-67561169,
红旗河沟渝通宾馆门口,29.586930,106.526237,一嗨租车(红旗河沟送车点),023-67561169,
解放碑较场口恒通云鼎国际公寓A座10-4号,29.554695,106.576249,至尊用车(重庆解放碑店),18602327700,
滨港路73附13号(碧津3号线轻轨站上行200米),29.713388,106.632460,尊腾汽车租赁,023-67175113,
李家沱正街时代壹佰7-4,29.464192,106.546102,睿驰租车,18983352070,
北山大道184号,30.821641,108.389243,鸿运汽车租赁一公司,,
创业大道97号华伟冻库室外停车场,29.502235,106.449521,创业路,,
奥体五支路33号附近,29.523820,106.508689,永鼎租车(奥体店),,
大竹林街道楠竹路5号1-1-6,29.623400,106.479530,重庆爱妃汽车租赁有限公司,,
松石路东和春天交通银行旁,29.591703,106.504610,一嗨租车(东和春天送车点),023-67561169,
陈家桥轻轨站出口20米,29.607691,106.328852,盼达用车(鼎吉驾校),,
科园四路龙湖新壹城1号楼4033号,29.528779,106.491910,重庆华畅租车,023-68032252,
青龙路132号,30.927989,108.697505,龙腾汽车租赁,023-85868111,15334605756
渝州路29号,29.533392,106.486496,九龙坡万庆租车公司,,
人和香锦路4号,29.614266,106.531573,重庆速运汽车租赁有限公司,,
渝新路235号半山公馆斜对面,29.538769,106.485588,启顺租车,023-68882937,023-88603423
江滨路69号北80米,29.389246,106.515379,滨江租车行,,
鱼胡路4-27附近,29.375660,106.533800,凯利捷租车,,
左岸陈桥37号附3号,29.617556,106.340407,颂车小站(02023),,
金剑路416附近,29.577900,106.230872,园博汽车租赁,,
兰馨大道6号14幢10附近,29.698849,106.605688,大方租车,,
大学城南路,29.598885,106.299499,颂车小站(02007),,
龙溪镇松石支路51号1幢1-8-3,29.703516,106.598340,重庆超程环卫有限公司,18623321299,
洋河2村66号,29.580821,106.530338,辉腾租车(洋河一路店),13350311788,
大学城南一路,29.583218,106.282982,颂车小站(02021),,
复兴街思源福居公租房三组团内,29.808034,106.552954,盼达用车(思源福居),,
两路街道江北机场T2对面,29.716993,106.635422,携程重庆机场租车中心,15683276555,
到丁家永川,29.481370,106.242393,服众快车,15223101979,
双龙东路126号,29.703784,106.628309,乾亨租车,,
双龙东路124附近,29.703804,106.628331,车速递租车,,
云开路1号附近,29.815898,106.398094,辉逢汽车租赁,,
泉山路北50米,29.587151,106.212228,太享利房车租赁,,
龙山二路6-附12号附近,29.597398,106.501322,重庆金钥匙科技服务有限公司,,
空港大道596号附近,29.739577,106.640006,邦达租车市租三公司,,
几江街道鼎山大道351号,29.278564,106.259445,泰东租凭,,
铝城西路,29.303784,106.331260,朋源租车,,
东湖南路82附近,29.602595,106.541900,悟空租车(东湖南路店),,
南坪镇学府大道50号附6号,29.497362,106.573142,重庆凯利捷租车,18983977848,
青龙路四巷9号,30.931898,108.695142,畅通汽车租赁,15823720118,
融汇大道西流沱巨星花园A区,29.460775,106.520239,巴南名艺租车公司,18580029132,
华玉路433号附10号,29.483482,106.436574,重庆道达汽车租赁公司,19908327779,
凤笙路金凤电子产业园园区宿舍大门内,29.538864,106.313387,盼达用车(金凤电子产业园),,
,29.602323,106.551234,滴滴租车,,
丁香路8号附14号,29.602237,106.551297,桐叶租车(重庆北站店),023-67684208,
黄桷垭后街26号附近,29.536351,106.603355,古道租车行,,
渝南大道52号,29.466333,106.562388,颂车小站(05017),,
民安大道136号附近,29.611210,106.526976,好运道汽车租赁,,
仁和压铸有限公司,29.619101,106.477824,忠义龙,13658286478,
协信星光天地4栋17-4,29.627672,106.532755,达至汽车租赁有限公司,023-63885402,
渝南大道70号附74号,29.457858,106.558099,一嗨租车(九公里店),13274006797,
天吉路,29.617084,106.547327,颂车小站(04015),,
烟雨路四公里枢纽站出租车入口处,29.517048,106.578296,盼达用车(四公里枢纽站),,
天福路61号附21号,29.619434,106.553773,69号超跑租赁,,
渝南大道128号东北80米,29.434281,106.551113,快诺汽车租赁,,
腾龙大道61附近,29.599051,106.600317,艺城租赁,,
国际博览中心北登陆厅正前方150米P2停车场,29.725551,106.546240,盼达用车(国博中心),,
渝澳大道1912-1914号附近,29.585146,106.521219,KK租车,,
洋河北路11号附7号,29.586068,106.538117,新东福汽车租赁,13350334356,
江北机场国内到达6号门,29.717521,106.638152,悟空租车(江北机场),,
晶瑞大厦2栋15楼,29.599172,106.548078,宜度租车,,
普福大道龙兴福居公租房商业街停车场出口,29.712829,106.788737,盼达用车(龙兴福居),,
汉渝路13号附1号8-1号,29.558371,106.465836,至尊用车(重庆沙坪坝店),023-63736671,
泰山大道东段119号集散中心,29.606085,106.553231,渝运租赁,,
回兴城北蓝色星空1幢(回兴立交东),29.677404,106.609294,君畅租车,,
桃花源大道中路与桃花源大道南路交叉口东南50米,28.832980,108.768683,顺达汽车租赁,023-75581111,13193241777
龙兴镇两江大道天堡福居公租房小区,29.683545,106.760595,盼达用车(天堡福居),,
红原路111号东原D7区三期2栋18-8号,29.571479,106.498270,重庆尊呈租车公司,13340224777,
金童路轻轨站2号出口复地复城国际旁,29.643536,106.567732,一嗨租车(汽博中心送车点),023-63067217,
双龙西路与飞湖路交叉口北100米,29.704721,106.617974,众信汽车租赁,,
八一路260号恒通云鼎A座19楼4室(恒通大厦),29.554260,106.576340,宏达汽车租赁有限公司,15159908698,
江北国际机场停车场1区,29.713717,106.635979,荣归租车(江北机场店),15823111163,
大学城北路139号(大学城地铁站旁),29.607652,106.309963,盼达用车(大学城地铁站),,
钟楼支路2号附2号,29.153204,107.096349,诚运租赁公司,023-85622888,
渝新路260号附2号,29.537499,106.487303,邦能汽车租赁,023-68526026,13637777573
北城路珠江国际B区车库旁,29.572181,106.561432,金港租车(珠江国际店),,
桃花源镇翠屏山大道中路11号,28.837011,108.770694,酉州车行,023-75581566,18325230655
科园六路附87号,29.532624,106.498850,华狮租车(科园六路店),13436000009,13708358145
龙兴镇绿城两江御园售房部东侧,29.686949,106.814002,盼达用车(绿城两江御园),,
凤天大道巴味堂正门,29.532539,106.456103,盼达用车(天骄年华),,
太白路99号附7号1-37,30.806977,108.380237,福斯德汽车租赁,023-58123933,13983525315
花园中路94附9号,29.539766,106.453264,盼达用车(天鑫花园),,
兴盛大道36号,29.586324,106.547359,喜亿租车(兴盛大道店),023-67101199,18883333005
国本支路9号,30.816628,108.369286,万运汽车租赁,023-58126678,18323721678
信义街与朝千路交叉口东北100米,29.566253,106.587054,神州租车(朝天门广场点),4006166666,
-江北-五里店五里店原茶园车站现融景城车站旁,29.586290,106.564559,奔途汽车租赁有限公司,18983028819,
虎歇路升伟·中环广场露天停车场,29.543727,106.499536,盼达用车(升伟·中环广场),,
红狮大道6号巴国城石生国际茶城门前,29.500046,106.475249,盼达用车(巴国城),,
龙湖源著南区21幢18-15,29.599955,106.489727,宜帆租车(龙湖源著南区),023-86911468,
冉家坝龙湖紫都星座B栋404,29.584556,106.497161,重庆中天汽车租赁有限公司,023-67534376,
大学城启迪协信城立方西区商业2对街画线停车位,29.583130,106.311410,盼达用车(启迪协信城立方),023-86064346,
盘龙正街金茂悦商场露天停车场内,29.507063,106.493018,盼达用车(盘龙金茂悦),,
西子路51号附近,29.499848,106.518073,迪卡租车,023-68031292,
天宝路与直港大道交叉口东北50米,29.509344,106.521747,环磊租车,,
南坪东路587号重庆滨江皇冠假日酒店内,29.540066,106.582670,一嗨租车(皇冠假日酒店送车点),023-62819901,
虎头岩立交,29.545568,106.496783,尚磊汽车租赁,,
石美路巴山公交站旁驾校内,29.520461,106.468004,巴山驾校,,
桃花源大道中路219号华章财富国际2F38号,28.833920,108.768890,酉阳县旺顺租车行,13224042666,
小龙坎新街99号12-c2,29.559807,106.462102,重庆亨韵汽车租赁有限公司,023-65361521,15823422110
交通路189号附近,29.526101,108.769252,途泰汽车租赁,,
官坝路汽车东站进口斜对面,29.526475,108.790562,途信租车(官坝店),13272663456,
建北一支路8号新上海大厦A栋06-20号,29.574624,106.533784,吉景商贸有限公司汽车租赁部,,
石新路61号3单元2层,29.521280,106.474027,久航租车,023-68611314,
观音桥建新西路4号附7号拓展大厦18层,29.572160,106.531470,驹安行汽车租赁有限公司,,
服装城大道48号君顿秀邸酒店停车场(酒店正大门左侧),29.664933,106.615712,盼达用车(君顿秀邸酒店),,
长江一路69号万国大厦商务D区,29.547145,106.530993,重庆万国汽车租赁有限公司,,
江城大道378号(合川区政府斜对面),29.972566,106.278939,华达租车,,
西科二路30号,29.601116,106.381874,重庆天创汽车租赁有限公司,023-65665107,17723530226
金建路中国邮政南100米二姐平价超市旁,29.444944,106.447395,七七租车,15086709080,
石坪桥横街58号附近,29.517561,106.504348,递谊租车,,
恒山东路与恒山西路交叉口东南附近,29.628873,106.478891,盼达用车(大竹林轻轨站),,
两江新区互联网产业园C7栋4层,29.622574,106.492422,盼达用车(互联网产业园),,
沙坪坝公园南门,29.550762,106.458128,一嗨租车(沙坪公园送车点),023-65803580,
长大路2号半山公馆对面,29.538859,106.485741,启顺租车石桥铺分公司,023-88603423,
民族路18号新重庆公寓9层,29.561288,106.582092,重庆华泰汽车租赁有限公司,,
二环路,29.991990,108.117613,安达小汽车租赁公司,15736664885,15730255809
高笋塘1号附6号(万州宾馆停车场入口处),30.812050,108.377950,捷通汽车租赁,023-58256699,
松石北路与松石支路交叉口西北50米,29.584901,106.503715,乐达汽车租赁,,
南坪西路1号西计大厦9层,29.528096,106.567251,瑞安租车(珊瑚路),023-86228388,
石井坡街道中心湾中心路旁停车场,29.596272,106.442692,石井坡(中心路),,
泰山大道东段29号,29.605014,106.544486,恒冠租车,,
泰山大道东段39号,29.605117,106.544540,重庆恒冠汽车租赁,023-66978888,13228548888
鼎山街道鼎山大道351号,29.278583,106.259490,泰东租赁柏林分公司,023-47565099,13594652999
红黄路89号中北大楼旁,29.586333,106.532411,市租汽车租赁,,
金龙路12号尖峰茶楼停车场,29.583501,106.511957,鑫煌租车,13667690269,15215119818
科园一路3号渝高大厦4层11,29.531548,106.485695,重庆良鸿汽车租赁有限公司,,
大石坝首创鸿恩4期1号楼12-16,29.571992,106.499218,丰华租车,023-86860046,18883671810
新溉大道231号附12号,29.601627,106.533717,豪邦租车,023-60390267,
建北四支路2号北辰名都1层,29.577048,106.530152,腾达汽车租赁(重庆店),023-67966026,
金龙路与龙华大道交叉口南50米,29.589595,106.517222,福安租车,,
中医院对面商社物流公司内,29.493706,106.484929,盼达用车(停用),,
大学城思贤路东方剑桥春风幼儿园对面,29.588520,106.305357,盼达用车,,
凯歌三支路8号,29.694859,106.611077,铄灵租车,023-67343371,15310447162
盘溪四支路170号附近,29.585764,106.486036,驰翔租车,,
云岗路2号附24号,29.610261,106.526107,庆旅租车(云岗路店),13370768111,
石坪桥横街1号,29.518449,106.505565,巨顺汽车租赁有限公司,15310337599,18996205229
烟雨路重庆四公里交通枢纽站旁,29.518745,106.578010,重庆交运租赁(海棠溪旗舰店),023-62881133,
白鹤路52号附5-附8号,29.516095,106.547810,乐升租车(白鹤路店),023-86336716,15683451319
南湖支路白鹤枢纽站电动客车充电站背后停车场,29.511079,106.565969,盼达用车(白鹤枢纽站),,
白马凼建材市场旁,29.538755,106.478655,和瑞租车(九龙坡店),,
红军路与翠屏山大道南路交叉口西100米,28.826366,108.774323,天天租车(红军路),13101178585,
南坪正街96号附近,29.537587,106.569734,优蓝汽车租赁,,
鼎山大道261号附2-4,29.276758,106.256527,重庆东和汽车租赁有限公司,023-47222777,13637887223
南坪东路15号新洲大厦,29.529530,106.572044,重庆上邦汽车租赁公司,15922617673,
拓展路与腾滨路交叉口东北50米,29.592140,106.591655,甲壳虫租车公司,,
五里店欧亚达家居生活广场,29.582992,106.561995,一嗨租车(五里店送车点),023-63067217,
党校路与天梨路交叉口西北50米,29.549778,106.450467,荣升租车,,
天梨路218号附9号,29.551384,106.439810,万庆租车,13399880875,
桃花源大道南路369号,28.824615,108.774777,168租赁行,13996951022,15023992333
红石路5号北部尚座31-10室,29.582881,106.524795,假日租车(北部尚座店),023-68171077,023-68171369
长生路47附52号附近,29.503622,106.662838,先建租车(长生路),,
弹子石红星腾黄路盘龙花园B区西门,29.599694,106.602365,先建汽车租赁(腾黄路),4000023991,13047388858
金港路138号,29.684051,106.599293,神行者租车(金港路),023-61302211,
天马山沿河西路陈家桥医院西北50米,29.615975,106.337025,诚必合租车,023-65008006,17723779767
汉渝路18附14号,29.557898,106.467535,沙坪坝富荔源租车公司,023-65335899,13658361188
宏帆路3附近,29.591905,106.462895,东尊租车,023-67669759,
杨梨路融汇温泉城圣地亚北区224号附2号,29.552801,106.439607,乐亿美租车,18223221968,
天宫大道97附17-18号附近,29.601297,106.551078,创言汽车,,
海尔路199号,29.613791,106.579394,渝汇汽车经纪有限公司,13320260220,
新南路145号附12号,29.600036,106.513406,宜帆租车(新南路店),023-67122419,15870477855
大坪长江二路174号长城酒店1楼,29.533592,106.514821,干鼎租车,023-68960692,
跃进支路与跃进路交叉口东150米,29.489201,106.495878,速达汽车租赁,,
大坪时代天街3号3107室,29.538653,106.512145,优达汽车租赁签约中心,17388290777,
五童街与红黄路交叉口东北50米,29.588426,106.540487,星昊租车,15002346868,
旗龙路60号附27号(太阳园车库出口)左侧,29.593602,106.494914,中祥租车(冉家坝店),18723231606,
港汇路88号附108号,29.731257,106.632166,立荣租车,,
龙头寺天宫大道136号,29.601300,106.550279,明双租车,023-67535250,18302388880
奥体五支路金牌大厦12-7号,29.523693,106.508583,崇熙租车,023-86378976,4006696595
龙山一路322号,29.598858,106.494609,宜帆租车(龙山一路店),13883222230,
渝州路59号石桥广场停车场,29.536422,106.492468,盼达用车(石桥广场),,
泰山大道东段60号附10号,29.602802,106.552313,尚益达租车(龙头寺店),023-67880076,15223339122
红锦大道570号(近锦绣山庄),29.610201,106.521528,松源汽车租赁,023-67504500,
嘉华隧道与大坪正街交叉口西100米,29.540752,106.519578,专城租车,023-68009096,15025302950
新牌坊云杉北路81号海洲国际小区露天停车场,29.613755,106.518634,盼达用车(海洲国际),,
站西路重庆师范大学后门50米处(沙铁村对面停车场内),29.555637,106.453801,盼达用车(重庆师范大学),,
龙塔街道华园路一巷38号,29.602614,106.559016,汇程租车,13251321888,18523162317
五黄路与渝鲁大道交叉口东南150米,29.585626,106.562795,西捷租车,,
新溉大道402号附35号,29.598254,106.553691,科达租车(龙头寺店),15823111127,
丁香路8号附16号,29.602127,106.551196,金美租车(龙头寺店),023-67684208,023-67717690
大黄路公交车站天澄堡社区旁,29.535752,106.522532,盼达用车(大黄路),,
余松一支路2号附近,29.584959,106.497099,呼应汽车租赁(余松一支路),13667695553,
红原路92号,29.568648,106.489201,一嗨租车(燕山会馆送车点),023-63276280,023-67561169
新华路201号联合国际车库入口,29.557060,106.582145,一嗨租车(解放碑便捷点),15683685848,
涂山路574号4-1,29.577695,106.600990,重庆市先建汽车租赁有限公司,023-62787585,023-62508245
松牌路96号,29.590672,106.514411,华廷租车,,
花园路10号龙锦苑小区3栋17-6,29.526841,106.555361,重庆嘉禾婚车租赁,13983699975,
丁香路8-16号,29.602267,106.551358,悟空租车(火车北站),023-67684208,4000515507
红锦大道与锦坪街交叉口东北50米,29.589135,106.525340,中安汽车租赁,,
龙泉路71号,29.495403,106.488510,鑫汇汽车租赁公司,023-68837466,
红黄路20号(洋河三路路口),29.585602,106.532727,中南汽租,,
万年路邢家桥社区停车场内,29.619519,106.529492,盼达用车(邢家桥社区),,
五童路奥飞马1-5,29.588574,106.540301,一嗨租车,,
松石北路与松石支路交叉口西50米,29.584870,106.503701,重庆万雄汽车租赁,,
长江二路88号爱华龙都大厦,29.540940,106.520286,龙搏租车,023-89310601,023-68718190
红石路5-2附近,29.582542,106.519976,正大租车,023-67627772,13220271288
渝航路四巷6号,29.719034,106.633569,欧冠祥汽车租赁,023-67174766,13883472561
旗龙路60附近,29.593488,106.495354,易游租车,13648385980,
观音桥阳光城6楼,29.576496,106.531098,九通汽车租赁,,
回兴镇街道兴科大道299号农村商业银行,29.689858,106.605827,一嗨租车回兴轻轨站送车点,18883365499,
石新路2号附18号,29.528192,106.479942,世鼎租车,13368476888,023-86970049
喜地山戴斯大酒店附近,29.717231,106.635264,神舟租车,,
宏帆路91号海悦香缇小区入口处,29.591421,106.466821,盼达用车(海悦香缇),,
万寿大道104-3号,29.991983,108.117534,安利达汽车租赁公司,13648235234,15683003888
金紫街116-17号附近,29.520927,106.566473,顶皓汽车租赁有限公司,,
民生路9号阳光星座,29.555006,106.573598,华锋汽车租赁(沙区站),023-66690892,023-66579373
丁香路8号附22号,29.602032,106.551106,重庆鑫港租车公司(渝北总店),023-86622019,023-86077107
上游三村8号1一2号门面,29.499408,106.508628,驰程租车(锦龙苑东南),13657696626,023-62228899
河滨西路北段48号,29.534473,108.780248,重庆百艺租车行,13908270518,
新华大道中段与联合街交叉口南50米,29.525491,108.787619,小什字汽车租赁,,
鼎山大道58号金科世界城27栋2单元2-6号商铺,29.269182,106.255609,重庆禾易汽车租赁有限公司(江津店),023-47538085,
渝新路260附6号,29.537477,106.487291,驰程汽车租赁(渝新路),023-68526026,
谢家湾正街47号艾佳A栋1层,29.518067,106.517112,八方租车(谢小路店),023-68669619,
青龙路313号,30.932387,108.694090,安畅汽车租赁行,15084307676,
关坪路107附近,30.922546,108.710725,恒通汽车租赁(关坪路),13668427988,
建新南路11号浩博天庭一楼大厅,29.571548,106.535010,鼎隆汽车租赁(观音桥店),023-67521122,13389648777
西园路69号附32号,29.277941,106.255636,鑫盾汽车租赁(津西花园店),023-85533266,
科园四路75-77附近,29.533178,106.494413,奥邦汽车租赁,15802382055,
重庆江北机场T2航站楼租车专用停车场,29.718328,106.635915,神州租车(重庆江北机场T2航站楼店),4006166666,13368386983
璧城街道文星路10号,29.586070,106.236923,安峰汽车租赁,023-87380868,13883206218
康恒路19号,29.497319,106.567780,尚途租车,13500367848,
科园四路11号附近,29.534084,106.494590,良鸿汽车租赁公司,,
兴农东街58号龙华汽修厂斜对面,29.839010,106.060510,龙城汽车租赁(水巷子店),023-45676111,13983683427
亚太路9号附86号,29.535740,106.559630,1号租车(南坪店),,
江南大道万达广场商务公寓4栋24-3号,29.525173,106.569690,南坪中祥租车公司,023-86228298,18723231606
北山路与渝东步行街交叉口北50米,30.825733,108.390279,佳州汽车租赁,023-85731788,
鸡冠石路3号附49号,29.606289,106.228835,快速汽车租赁,023-41600811,13320338025
璧城街道远林二街2附1号远林雅宇豪苑东区,29.593583,106.224126,吉安汽车出租,13628312682,
文星路与璧青路交叉口西北50米,29.586021,106.237291,弘达汽车租赁,,
五红路17附26号,29.583784,106.555901,明鹏租车(五红路店),023-86622199,023-67126798
临江路89号天伦华苑,29.558014,106.572198,重庆凌云汽车租赁有限公司,,
安庆路103-34号,30.760510,108.440831,翔龙汽车租赁有限公司,023-58544186,13668478188
福顺路11号2栋41号,29.556322,106.225903,鸿升汽车租赁有限公司,023-41510516,13667668111
沙滨路秋水与宝嘉段桥下停车场,29.571645,106.469091,盼达用车(沙滨路桥下停车场),,
易家沟长安医院旁13号,29.576682,106.551777,奔途租车,023-67122235,18983028819
洋河二路计生医院上行50米,29.584587,106.531748,重庆荣归租车公司,15823111163,15823320830
人和大道附近北城医院大门口,29.620463,106.528251,一嗨租车人和送车点,023-63067217,
新南路162号水晶星座13-11号(会馆旁),29.601384,106.504076,易游租车,023-63111511,
人和天来酒店旁,29.630550,106.531710,陆航者租车(人和店),023-63421366,
南坪西路63号附近,29.528087,106.554672,重庆驷途汽车租赁,,
天宫大道94号附6号,29.603548,106.550364,腾达租车(天宫大道店),023-63019868,13062345666
高九路经纬大道1098号同创高原商业广场,29.545610,106.484077,盼达用车(同创高原),,
丹龙路5号,29.514667,106.542640,沃克汽车租赁,,
松石大道111号丰业小区B栋1-23号,29.582847,106.501883,叮叮租车(花园新村店),023-88567649,17783907855
旗龙路60号附34号,29.593606,106.494513,一嗨租车(冉家坝店),023-67561169,
天瑞路17号5栋附73号,29.617837,106.548669,韵辰租车,023-67305516,18523955529
都市花园东路66附66号,29.542078,106.454547,纬度租车,023-61718808,
五红路40号附1号,29.584213,106.551603,商旅租车,13220271288,
渝航大道T3航站楼2F层,29.709243,106.655431,机场快车,,
新溉大道郑家院子站内,29.599100,106.530083,一嗨租车,023-63067212,
泡桐树街9号,29.277950,106.255935,明翼汽车租赁,023-47228107,
金山路10号附7号,29.519053,106.558671,黎飞汽车救援,,
茂业天地1720,29.577818,106.531105,中御租车&婚车之家,4000018520,15213641359
电测村231号,29.577546,106.526809,津源租车,,
青龙路152号,30.927960,108.697052,鸿通汽车租赁,15123573515,13123573515
壮志路四川外国语大学新校区后门旁翰阳驾校内,29.564230,106.433160,盼达用车(四川外国语大学),,
南滨西路12号附3号,29.514169,106.541118,行车道汽车互联网,023-62813070,
红黄路90号中北商务大楼B座6层,29.586070,106.532214,重庆市出租汽车有限责任公司,023-67525800,
兰花小区路口建设银行旁,29.518141,106.458125,重庆速达汽车租赁有限公司,023-68883622,13752978078
翠湖路315号1-15号,29.701941,106.626206,友途租车,023-67288877,
天马路186号,29.543011,106.458081,兴展租车,,
兴隆苑59号,29.518353,106.574613,浩辰租车,13500357333,
沙中路,29.561368,106.466271,重庆神行者租车,023-66600006,023-61302211
北城路82号附1号,29.573123,106.559296,江北宿安租车(江北店),023-67127530,
南兴路228号附23号(渝能都市经典),29.519982,106.571685,卡思租车,023-62477773,18883333290
烟雨路1附14号凯帝国际网球俱乐部内,29.535640,106.586173,盼达用车(凯帝国际),,
江南大道7号2栋韵阁15-12,29.532154,106.566451,吉景汽车租赁,023-89009996,
兴科大道522号,29.684369,106.594936,恒强汽车租赁,023-67457666,
辅仁大道25-附1-9号附近,29.532145,106.578903,铭中汽车租赁,,
天马路与马家岩立交交叉口东南100米,29.540236,106.464924,沙坪坝超雅租车公司,17723117099,
泡桐树街65号,29.276705,106.255329,伟进汽车租赁,023-47519500,13002340759
经纬大道1109-附4号附近,29.542573,106.481056,重庆法诺迪汽车租赁,,
官坝路锦绣苑339号,29.529199,108.790361,潘冉汽车租赁,15696900900,
南坪金山路146-2号,29.519112,106.564244,彩梦租车,17384709175,
南兴路239号,29.518131,106.571356,豪贷租车,,
回龙路,29.503860,106.571388,盼达用车(兰花湖公园),,
杨渡二村,29.495857,106.501351,公运出租,,
南兴路与江南大道交叉口东100米,29.520291,106.575661,艾美租车(海德门店),,
江南大道15号,29.527370,106.570566,盼达用车(南坪汽车站),,
一嗨租车江北机场t2店,29.717265,106.635500,一嗨租车(江北机场T2店),023-61304988,
加州花园C-1栋,29.588271,106.524206,顺安租车(嘉州路),023-67502188,
江南大道29号渝能汽配城1-109号,29.524341,106.572928,瑞安租车(南城丽居西南),023-86228388,023-86228399
西永街道赖白路西永医院旁露天停车场,29.584882,106.377539,西永老街,,
新溉大道567附近,29.598645,106.561135,中尊租车,,
天陈路31号1-1-4室,29.552514,106.459123,永发租车(天陈路店),023-65312790,
力帆中心1层(精美国际俱乐部前行100米),29.568798,106.573085,盼达用车(力帆中心),,
袁家岗2号,29.531769,106.516730,商社汽车租赁公司,023-68703188,023-68707688
泰山大道东段60号附15号,29.602741,106.552190,一嗨租车(龙头寺店),023-63067217,
山茶路49号,29.600730,106.547752,瑞卡便利租车(狮子坪轻轨站店),13826221446,
西郊路上游三村7号附1号-31幢1单元附1-2,29.499008,106.508139,一嗨租车(杨家坪店),023-68404892,4008886608
人民路123-1号蒲田大厦1506室,29.562848,106.555711,旭升汽车租赁,023-63500379,023-63890654
文凤路220,29.584903,106.229578,九鼎汽车租赁(文风路店),023-85288466,13640511588
南坪会展中心广场对面会展花市1号出口旁,29.534907,106.564397,神州租车(南坪会展中心店),023-62753912,4006166666
洋河四路(卜蜂莲花超市收货区旁),29.585788,106.533853,神州租车(江北力帆体育场店),023-67871760,023-67871780
金银山大道南路477号附近,28.827643,108.770971,诚信汽车租赁行(桃花源大道南路),15310581888,18996975038
江南大道1-18号附近,29.531468,106.565764,明强租车,023-62604098,
都市花园西路146号,29.538811,106.449056,畅行租车(总店),13983417779,15723255558
金龙路12号建设银行对面,29.583836,106.511794,友诚租车(金龙路店),15215119818,
开州区滨湖中路785号附近,31.175555,108.394364,五福租车,,
汉丰街石龙大桥转盘,31.176240,108.394350,洋芋租车,13509442222,
开州区凤凰路226,31.172710,108.395286,舒捷婚庆租车,17059570555,
开州区开州区百成街68,31.166599,108.406365,天龙租车,15223519916,
海棠路与龙中路交叉口东100米,29.695380,105.721849,重庆市大足区畅运汽车租赁有限公司,15683359087,
百成街28号,31.164958,108.406634,吉运租车,023-52787776,15523005000
汉丰街175号附近,31.158295,108.366640,罗马租车行,13628222906,18182338840
汉丰街道驷马社区百成街52号,31.165765,108.406337,宏达租车,023-52252177,
滨江大道涪陵港旁两江地下停车场内,29.712148,107.403094,神州租车(涪陵滨江大道涪陵港服务点),13060255789,
金华路328号附35号(摩尼咖啡旁边),29.827089,106.416862,维格汽车租赁行,023-68282873,13640566672
帅乡路458号附近,31.165309,108.390330,广仁汽车租赁,023-52248255,
火车站大道2号附143号,29.150208,107.106743,重庆衫基汽车租赁有限公司,023-71666101,13452574333
丹凤路与香林北路交叉口北150米,28.450161,109.003356,强宇汽车租赁,15023973888,
桂溪镇桂西大道凤西街凤西路8号2楼,30.329786,107.337191,垫江县互邦出租汽车有限公司,,
南津街491号,29.976764,106.276183,合川区合州车主俱乐部(滴滴优步服务中心),023-42889799,
鱼复街道诗城路117号附111号,31.014203,109.470698,夔澳租车,13101083111,13224922333
万盛经开区万盛大道40附近,28.953074,106.928304,天华租车行,13032364587,
火车站大道2号附148号,29.150209,107.106681,重庆市鹏俊汽车租赁有限公司,023-85630058,13996817432
盛德路南50米,29.614084,106.323708,重庆长途汽车运输(集团)有限公司大学城汽车租赁分公司,,
北环路27号(博赛豪庭正对面),29.164598,107.100274,长江租车,023-85631693,13251111117
江南大道15号,29.527370,106.570566,盼达用车(南坪汽车站),,
一嗨租车江北机场t2店,29.717265,106.635500,一嗨租车(江北机场T2店),023-61304988,
加州花园C-1栋,29.588271,106.524206,顺安租车(嘉州路),023-67502188,
江南大道29号渝能汽配城1-109号,29.524341,106.572928,瑞安租车(南城丽居西南),023-86228388,023-86228399
西永街道赖白路西永医院旁露天停车场,29.584882,106.377539,西永老街,,
新溉大道567附近,29.598645,106.561135,中尊租车,,
天陈路31号1-1-4室,29.552514,106.459123,永发租车(天陈路店),023-65312790,
力帆中心1层(精美国际俱乐部前行100米),29.568798,106.573085,盼达用车(力帆中心),,
袁家岗2号,29.531769,106.516730,商社汽车租赁公司,023-68703188,023-68707688
泰山大道东段60号附15号,29.602741,106.552190,一嗨租车(龙头寺店),023-63067217,
山茶路49号,29.600730,106.547752,瑞卡便利租车(狮子坪轻轨站店),13826221446,
西郊路上游三村7号附1号-31幢1单元附1-2,29.499008,106.508139,一嗨租车(杨家坪店),023-68404892,4008886608
人民路123-1号蒲田大厦1506室,29.562848,106.555711,旭升汽车租赁,023-63500379,023-63890654
文凤路220,29.584903,106.229578,九鼎汽车租赁(文风路店),023-85288466,13640511588
南坪会展中心广场对面会展花市1号出口旁,29.534907,106.564397,神州租车(南坪会展中心店),023-62753912,4006166666
洋河四路(卜蜂莲花超市收货区旁),29.585788,106.533853,神州租车(江北力帆体育场店),023-67871760,023-67871780
金银山大道南路477号附近,28.827643,108.770971,诚信汽车租赁行(桃花源大道南路),15310581888,18996975038
江南大道1-18号附近,29.531468,106.565764,明强租车,023-62604098,
都市花园西路146号,29.538811,106.449056,畅行租车(总店),13983417779,15723255558
金龙路12号建设银行对面,29.583836,106.511794,友诚租车(金龙路店),15215119818,
304省道西50米,28.264507,109.035189,万方寄用车行,,
五洲国际商贸城5栋1-50-51,29.399279,105.613760,重庆市荣昌区恒易汽车租赁有限公司,15683183854,
梁平体育场东90米(马房街西),30.676364,107.800275,永安汽车租赁,023-85910578,18523698539
迎凤路181附近,28.454665,109.001996,恒安汽车(七星路),13896467606,13609490030
义洲四街与武陵北路交叉口东北50米,28.449333,109.013531,捷安租车,,
迎凤路165号附近,28.453900,109.001621,远航汽车租赁,13996900786,
蔡家岗镇嘉瑞大道蔡家公交站,29.736328,106.488164,盼达用车(蔡家中央大街),,
东阳镇天府丽正小区旁,29.844130,106.452463,盼达用车(北碚天府丽正),,
金桥路16号金鑫大厦金苑食府门口,29.452269,106.478239,盼达用车(钰鑫集团),,
世纪花城-3期,29.060540,106.637671,聚马飞腾新能源汽车綦江区线下体验中心,023-61273697,18696559603
鱼洞街道鱼轻路48号,29.380785,106.514181,重庆市威通出租汽车有限公司,023-66293868,023-66212874
奔月路与龙溪路交叉口东南150米,29.818651,106.430770,重庆久友汽车租赁有限公司,023-68322256,023-61302655
文庙街西100米,29.298169,108.168285,佳美汽车租赁,,
广东东路317号,31.084452,109.885129,兴旺租车,,
云华路3号附近,29.808058,106.395631,重庆捷吉汽车租赁有限公司,023-68345933,18502322256
中山路老城商圈兴苹停车场内,29.824011,106.436944,盼达用车(北碚兴苹停车场),,
悦复大道两江健康科技城门前,29.761960,106.539753,盼达用车(两江健康科技城),023-86064346,
渝巫路北50米,31.038838,108.134002,鼎铭,023-52700010,
群兴路西100米,29.812705,106.438752,重庆隆悦汽车租赁有限公司,,
滩口正街15号附近,29.814868,106.516895,重庆丹和汽车租赁有限公司,,
迎宾大道1869号附近,29.521948,108.738106,黔江区留久汽车租赁有限公司,,
五红路22号附12号,29.584732,106.555061,小桔有车隆城汽车租赁重庆分公司,023-67037196,
龙水镇龙湖景园2-4号,29.560589,105.760454,大足兴旺汽车租赁有限公司(龙湖景园店),15111800530,
近郊东风大道76号,30.187269,105.833689,好友汽车租赁(东风大道店),13527543686,
中和街道石莲路86号,28.429046,108.997672,秀山互邦汽车租赁有限公司,023-76862555,
金佛大道与钟楼支路交叉口东50米,29.152550,107.095827,重庆市全顺汽车租赁有限公司,15123675444,18717023993
机场路,30.678014,107.797965,金顺租车(机场路),13101003563,
奥体五支路1号金牌大厦4-17,29.523691,106.508584,重庆途牛汽车租赁有限公司,023-86151434,13368212223
平都大道东段315号2楼,29.873578,107.742595,丰都县乐途汽车租赁有限公司,,
龙凤桥街道龙凤路煤安厂公交站旁,29.806374,106.432259,盼达用车(北碚龙凤桥),,
书院路6号附14号,29.147711,107.101945,重庆市力涵汽车租赁有限公司,023-71463124,
青羊宫路与高笋塘后街交叉口西北50米,30.810020,108.374099,白马汽车租赁公司(孙家书房路),,
花卉园西四路66号,29.579374,106.510393,重庆市浩宇出租汽车有限公司,,
八一路260号恒通云鼎A栋10层4,29.554509,106.576322,重庆环渝汽车租赁公司,023-63736071,
桃花大道18号附8号,29.838455,107.080383,包记汽车租赁接待中心,15178788817,
南津街街道南津街491号,29.976802,106.276149,重庆市合州汽车租赁有限公司(南津街玫瑰园总店),,
天生街道辽宁路石岩村90号-17,29.826101,106.434421,顺路汽车租赁,023-68225788,13983041789
将军路108号,29.807834,106.411544,钢琼汽车租赁(将军路),023-88022661,15922619566
东环路181号附8号,29.151336,107.109133,南川区锋洲汽车租赁有限责任公司,023-64565446,
九龙大道红星小区门面,29.058365,106.638836,重庆锦辉汽车租赁有限公司,023-48880088,
北环路27号附近,29.164600,107.100271,科亿汽车租赁,,
金佛大道119-10号附近,29.148964,107.105533,浪仔汽车租赁,023-71623716,13594557188
金佛大道20号附4号,29.150178,107.102596,信安租车行,023-71450789,13896500238
金山丽苑b区,29.145738,107.109967,安茂汽车租赁有限公司,15978989222,
景同路123附近,29.851801,106.845481,重庆彩虹汽车租赁有限公司,,
文龙街道九龙大道85号红星安置房4栋1-27,29.056986,106.639580,高宇租赁,023-85391231,18696533526
迎宾南路207号,30.245233,108.382966,宏通汽车租赁有限公司,13983574558,
泡桐树街与鼎山大道交叉口西南50米,29.275558,106.255516,都市通汽车租赁有限公司江津分公司,,
桃花大道与金山街交叉口西北100米,29.838328,107.077308,重庆市长寿区瑞臻汽车租赁行,,
万丰路与五星南路交叉口西150米,29.580874,106.554086,重庆市子轩汽车租赁有限责任公司,,
北环路7号(合川客运中心对面),30.006622,106.267013,重庆小马奔腾汽车租赁有限公司(北环路),023-42813205,13983979739
凉亭子89号附33号,29.349882,105.907865,竣翔汽车租赁公司(望祥路),15922792582,18580400322
南城街道办事处西环路226-230号,29.835823,106.045296,铜梁巨龙吊车租赁有限公司,023-45642407,13983486279
昌州大道中段218号9幢附2号,29.360229,105.905967,重庆市博坦私户营运网约车办理中心,023-49522387,13527316320
国际商务大厦B座15-B1号,29.528909,106.565793,重庆柏萨罗汽车租赁有限公司,,
金佛大道41号附15号,29.147010,107.109472,钢仔租车(总店),,
金山大道7号附21号,29.145909,107.098296,重庆恺方汽车租赁公司,,
万盛经开区松林路57-1-1号,28.956903,106.928880,穆姐小车租赁,023-48001738,13996331159
金佛大道125号附4号,29.149654,107.103114,耀安汽车租赁,023-71622555,17784717019
城西路90号附近,29.161715,107.094901,启富租车,,
南津街29号,29.977434,106.274878,重庆小马奔腾汽车租赁有限公司(南津街),,
凤栖北路132号附近,28.438115,108.999973,飞哥车行,15310580166,
建新北路15附近,29.576036,106.530227,神州租车观音桥步行街客户自助服务点,13638342013,
江南大道2号会展花市2号出口,29.535295,106.564375,一嗨租车（南坪会展中心店),023-62314858,
五红路27号附15号,29.583901,106.552766,重庆中茂租车公司(渝北五红路店),023-67015018,
五星大道666号3幢2-30号,29.663611,105.734218,重庆市大足区畅运汽车租赁有限公司,15683359087,
望州路3号,29.695778,107.401759,重庆市涪陵区杰龙汽车租赁有限公司,023-72223367,023-72004299
区红十字会医院北100米(泰和路),30.661225,107.782659,瑞升租赁行,13212550655,53338636
龙海大道5号7幢1-40室,29.399238,106.542197,一嗨租车(巴南万达广场店),023-66487604,
双江街道杏花路102号,30.931024,108.695744,云阳县优力汽车租赁门市,023-55336669,13996553553
民主新街25号附近,29.440274,106.541476,重庆竟腾汽车租赁有限公司,,
何家坝路与桃花源南路交叉口西50米,28.819214,108.777670,诚信租赁,,
重庆西站北循环道社会车辆临时停车场内,29.503476,106.433711,一嗨租车（重庆西站便捷点）,17725112941,
广东东路251号1-1,31.083999,109.885246,正大神女租车,023-57622767,023-57580006
和平路207号,29.553670,106.568595,百安商务租车,023-63639168,
歇马路附近,29.755994,106.363923,左中右(重庆)电动汽车服务有限公司歇马直营店,,
城西五路8号,29.527377,108.768482,燕兴渝黔出租汽车有限责任公司,,
大学城北路轨道1号线大学城站1号出口旁露天停车场(轻轨停车场旁),29.607623,106.310384,神州租车大学城轻轨站客户自助服务点,4006166666,18580135361
万盛经开区万东北路58号,28.951389,106.926207,众鑫租车行,023-48273128,18983088885
凤凰路240号,31.172153,108.394519,愉凯租车,13098609111,
南涪路与平安巷交叉口西150米,29.162094,107.093870,月顺汽车租赁,,
,29.702705,106.657881,一嗨租车(江北机场T3店),18983665184,
鱼洞云锦路1号典雅天城附近(轻轨鱼洞站对面),29.373776,106.506214,一嗨租车(典雅华美达广场酒店送车点),023-66487604,
南山中路西四巷与永兴街南三路交叉口西50米,31.161228,108.395692,林翔汽车租赁公司,,
南滨大道1509号,30.808414,108.400989,一嗨租车(三峡移民纪念馆送车点),023-58122859,
九公里渝南大道68号典雅戴斯酒店露天停车场,29.461864,106.561064,神州租车(九公里典雅戴斯酒店停车网点),,
平安路60号附近,29.242429,106.389729,君顺汽车租赁有限责任公司支坪办事处,,
碚南大道392附近,29.800131,106.411683,重庆交运汽车租赁有限公司北碚办事处,,
沙龙路一段1122号,30.800356,108.372170,沙龙汽车租赁,023-58123789,
金剑路498号2栋3号,29.563765,106.232938,易租通汽车租赁(福康路),023-41668235,
南津街街道文峰东城南门对面(太平桥小区门口),29.980280,106.273571,神州租车合川文峰东城客户自助服务点,,
洋河北路邦渝花苑3号,29.583539,106.542703,重庆市百纪汽车租赁有限公司,,
名山大道309号附近,29.862517,107.736693,乐途租车,,
滨江路8号楼,29.870687,107.736937,鑫运租车,,
凯歌二支路9号,29.696378,106.612896,重庆渝易行汽车租赁有限公司,13996207018,
白鹤路155号附3-5号,29.515191,106.568001,重庆市鼎犇汽车租赁有限公司南岸区分公司,,
南兴路与金山路交叉口西北100米,29.519527,106.571411,重庆百盈汽车租赁有限公司,023-62753728,023-62772007
宝桐路308号职教中心大门对面露天停车场,29.692613,106.600347,神州租车(回兴职教中心客户自助服务点),,
云江大道,30.937797,108.696782,重庆交运汽车租赁有限公司云阳分公司,,
同源路16号力帆三工厂1号门,29.745596,106.472635,盼达用车(蔡家同源站),,
过水巷2号,29.838458,106.061036,金龙汽车租赁(民营街店),023-45672469,13206022999
黑龙江路21号万州汽车北站出站口,30.845764,108.370997,神州租车(万州汽车北站送车点),,
云轩路55号,29.807015,106.398752,一嗨租车(状元碑店),023-68262636,
龙洲湾龙洲大道(巴文化公园斜对面),29.412347,106.537901,一嗨租车(巴南佳兆业广场送车点),023-66487604,
春申大道336号附近,31.395190,109.555242,重庆达的汽车租赁服务有限公司,,
滨江东路40号附近,29.872139,107.735407,丰都县安达汽车租赁行,,
鼎山大道223号,29.275961,106.255989,驿站网约车江津分公司,023-47554557,18512340444
新市街76号,29.383060,106.523979,一嗨租车(重庆赛豪大酒店送车点),023-66487604,
盛德路南50米西部新城客运站,29.614202,106.324941,神州租车(西部新城客运站送车点),18580135361,
亚太路1号1栋裙楼1单元1-B1-39号,29.534008,106.559846,首汽瑞卡租车(重庆南坪会展中心店),,
津马大道津城首府134号,29.442667,106.285094,君辉汽贸,,
江南大道2号凯宾斯基酒店(重庆国际会展中心旁),29.535281,106.561184,神州租车(重庆凯宾斯基酒店送车点),,
昌州大道中段466号附1号,29.399450,105.593301,荣华运输有限公司汽车租赁部,023-46742585,18166440919
铁山坪逸兴路19号1幢,29.610389,106.689939,五季元食疗养生养老旅游度假基地,,
大学城南路富力城2P-3号,29.599324,106.307794,神州租车(大学城汉庭酒店送车点),,
二环北路中段189号,29.706494,105.716030,重庆市足行汽车租赁有限公司,15025466777,
淮远古韵北街一支路东100米,29.825959,106.063028,辉耀汽车租赁有限公司,,
中山大道东段与官井路交叉口东南150米,29.353499,105.907964,大方租车(永川店),,
凯歌路15号附近,29.698708,106.621584,一嗨,,
鼎山大道18号西南50米,29.275572,106.255527,锦辉汽车租赁有限公司江津分公司,,
洋河北路7号附9号,29.586378,106.536133,多多汽车租赁,023-67758825,
大江轻轨站和顺园小区广场,29.383152,106.500808,盼达用车(大江轻轨站),,
合阳城街道办事处马家沟路36号1栋,30.008995,106.267287,自由行汽车租赁,17783004199,
科城路66号附2号金茂酒店门口露天停车场,29.509298,106.459262,神州租车(二郎金茂酒店停车网点),,
璧青路615附近,29.585020,106.237793,重庆龙凯汽车租赁有限责任公司,,
鼎山大道215号附近,29.275628,106.255263,震荣汽车租赁代驾服务有限公司,,
康庄地铁站1号口东50米,29.634912,106.479545,一嗨租车,15800350361,
腾龙大道50号附56号,29.596885,106.597346,一嗨租车(洋人街店),023-62304148,
榕华街与湖榕路交叉口地面停车场,29.476300,106.481115,神州租车(大渡口沃尔玛停车网点),023-86378929,
金开大道1000号附6号,29.637662,106.543176,一嗨租车（棕榈泉店）,18883365499,
鼎山大道718号前广场地面停车场(江津大酒店停车场),29.270386,106.275153,神州租车(江津大酒店停车网点),,
龙山路174号南桥静月小区旁,29.590210,106.487181,神州租车(冉家坝南桥静月送车点),,
同景路10号同景国际P组团3栋2-9,29.494802,106.649300,平顺租车,15340371210,
同景路10号附6号,29.494067,106.650199,一嗨租车（茶园店）,,
丽园路东大肛肠医院路边停车场,29.601051,106.521950,神州租车(北城阳光尚线停车网点),023-67871780,
红光大道62号杰信华府广场内的地面停车场,29.456344,106.534049,神州租车(杰信华府广场停车网点),,
枣园路70号附近,29.357018,105.885955,重庆永川鸿瑞汽车租赁有限公司,15808060958,13883268621
大学城中路34号10幢1-30号,29.602607,106.309638,大方租车(大学城店),,
敦仁街道明瑜国际5栋1-7门面永宏汽车租赁,29.701688,107.403076,重庆市涪陵区永宏租车有限公司,,
滨江大道52号(白鹤梁水下博物馆斜对面),29.711935,107.391234,神州租车(涪陵居然之家送车点),,
红光大道62号(杰信华府广场内),29.456120,106.534186,重庆川裕汽车租赁有限公司,13372664777,
铝城南路,29.301585,106.332721,神州租车(澎湖大酒店自助点),,
龙泉路轻轨2号线附近,29.496290,106.488713,一嗨租车(马王场轻轨站送车点),023-68033495,
天宫大道狮子坪轻轨站旁,29.602253,106.550474,久美汽车租赁(天宫大道),023-63422225,13018300005
巴县大道111-5号附近,29.386521,106.511930,重庆进远汽车租赁有限公司,,
杨梨路226号附6号,29.553218,106.439861,缘莱租车(沙坪坝店),023-65381272,
金佛大道康盛花园117号附12号,29.148972,107.105505,重庆市建哥汽车租赁有限公司,023-71623716,13594557188
全兴路与隆西大道交叉口西北50米,29.377165,106.016823,华阳汽车租赁抵押中介公司,,
学院路与431县道交叉口西南150米,29.241021,105.875268,重庆津航顺汽车租赁有限公司,13399869215,13996432718
白市驿白林路有家超市旁入口,29.491608,106.372186,白市驿二社区停车场,,
红光大道,29.452056,106.546360,松源汽车租赁(红光大道),13500309648,
李家沱林荫村18号,29.465297,106.542103,一嗨租车(都和广场送车点),023-66487604,
和畅大道988号35幢2-10,29.338030,105.946536,重庆奕南希汽车租赁有限公司,023-61168277,
江北城西大街25号平安财富中心A座1006,29.572100,106.569100,保元显通汽车租赁有限公司,,
奥体五支路11号,29.523758,106.509127,私户网约出租车,15215172417,
景和路,29.602832,106.303099,一嗨租车(大学城熙街A送车点),023-65737033,
红光大道67号(重庆交运加油加气站),29.457429,106.530872,一嗨租车(重庆理工大学送车点),023-66487604,
北滨大道二段1001号,30.813657,108.383274,一嗨租车(万达希尔顿酒店送车点),023-58122859,
红原路92号附11号,29.567337,106.500211,一嗨租车(大石坝店),023-63276280,
轨道3号线九公里站3号出口旁,29.458352,106.558785,一嗨租车(九公里轻轨站送车点),023-66487604,
巴南万达金街附2号2-21,29.396985,106.545011,捷鹏租车(巴南万达店),023-62565588,
一环北路东段7号,29.703056,105.722615,神州租车(大足宏声广场店),023-43778688,
金光大道与金山大道交叉口东200米,29.145546,107.108073,别致汽车租赁,023-71458458,13983330168
金佛大道30号附19号,29.151237,107.098944,泓峰汽车租赁质押,,
隆西大道360号附近,29.380468,106.012380,租车,,
杨正街43号附246号2楼,29.505132,106.518119,重庆祥元汽车租赁有限公司,,
杏花路102号,30.930885,108.695572,固泰汽车租赁经营部,023-55336669,13996553553
3号线广场1层附11号,29.599273,106.549552,枫叶汽车租赁有限公司（重庆分店）,18680837386,
奥体五支路41号,29.523513,106.508458,一嗨租车(重庆奥体中心店),023-68627015,
五兴街和兴隆街的交叉口附近,29.184257,105.841991,致途汽车租赁有限公司镇街服务点,,
合兴街632号附近,29.130491,105.871475,致途汽车租赁有限公司镇街服务点,,
桂林路与花灯街交叉口西50米,28.444476,109.001358,秀山县飞渝汽车租赁服务有限公司,,
巴渝大道507号附近,30.193311,105.831590,运福汽车租赁有限公司潼南分公司,,
金佛大道与金光大道交叉口东150米,29.146784,107.112252,星宝租车,15825967887,13996888825
育才路11号附46号附近,29.832259,107.005371,包记汽车租赁公司(晏家提车点),13627650211,18680853527
红石路309附近,29.572094,106.497075,重庆交运汽车租赁有限公司江北办事处,,
新华大道西段419号附近,29.527373,108.760995,永骏汽车租赁有限公司黔江分公司,,
大学城中路34号S1幢1-15,29.602575,106.309052,一嗨租车(重庆大学城店),4008886608,
海螺路东50米,29.277501,106.232603,江津市德感汽车修理厂,,
双桂大道东50米,30.656575,107.779106,国信租车,15320602251,15320402351
汉丰街道九龙社区人民路2082号,31.176267,108.406077,皇家租车,18696859994,
巴滨路宗申金蓝湾销售中心前,29.463795,106.502922,盼达用车(宗申金蓝湾),,
北大街禹田花园3-1-2,31.949596,108.663791,城口县诚勤汽车租赁有限公司,13983549235,
洞塘居委2组,29.522861,108.743788,重庆市鼎犇汽车租赁有限公司,,
安庆路109号,30.759973,108.440302,重庆市凯迪汽车租赁有限公司,18166378518,
火炬大道13号6栋附10号A,29.503766,106.478052,一嗨租车(巴国城店),023-68033495,
站前路122号,30.756455,108.400988,一嗨租车(万州火车站送车点),023-58122859,
,30.318136,107.338903,建国租车行,18716808999,13628267806
太白路262号,30.803659,108.382023,重庆六六顺汽车租赁有限公司,023-58247388,
渝南大道118-158号附近,29.440871,106.550780,重庆金永汽车租赁有限公司,,
沙正街19号附28号,29.563593,106.460196,一嗨租车(沙坪坝店),023-65803580,
滨江东路21号附2号,29.872246,107.734574,丰都县鑫运汽车租赁行,15025687591,
金开大道1222号聚信美家居1号店,29.670799,106.561930,一嗨租车（聚信美家居便捷点）,18883365499,
黄龙路28号4栋5-11号,29.589659,106.539955,尊荣租车,023-67535309,023-67539619
华岩一村88号附39号(8),29.495786,106.440840,大方租车(西站店),023-67366337,023-67832234
纵五路金科廊桥水乡公交站对面,29.583141,106.291537,神州租车(金科廊桥水乡送车点),,
渝航路三巷15号附近,29.720827,106.632137,重庆的卢逍客汽车租赁有限公司,18008212999,
太极大道3号1-4,29.693588,107.399630,重庆捷翔汽车租赁有限公司,13220299599,
金源路东方家园公交站(近重客隆超市),29.564963,106.529860,神州租车(金源路东方家园送车点),,
启迪协信星澜汇营销中心门前广场,29.368850,106.533038,盼达用车(启迪协信星澜汇),023-86064346,
南天湖东路与沙湾路交叉口东200米,29.867942,107.743005,重庆康淋汽车租赁有限公司,,
桃源西一路附近,29.853627,107.078597,重庆揽福汽车租赁有限公司,,
桃源西二路796号,29.864469,107.073312,一嗨租车(长寿天宫睿城店),023-40888584,
铜合路49号附近,29.967218,106.256820,合州租车(同合花园西南),023-42742622,
潼南区朝阳路,30.193660,105.846360,重庆永骏汽车租赁有限公司,18083029080,
建新路1号附近,29.485769,105.764006,大足兴旺汽车租赁有限公司,,
金渝大道83号附26号,29.647636,106.566537,喜相逢·以租代购,13115901102,13387037014
昌元街道宝城支路36号,29.401675,105.586745,荣昌旺达汽车租赁有限公司,15111800530,
江南大道8号-1号,29.526079,106.569114,南坪卡思租车(南坪万达分店),,
城厢镇春申大道555号水韵酒店一号门市,31.394698,109.559498,瑞德汽车租赁有限责任公司,023-51227888,
花溪轻轨站宗申青年国际商业街露天停车场内,29.430822,106.551184,盼达用车(宗申青年国际),,
文毕大道锦荣小区,30.299395,107.365105,重庆六歌网约车垫江分公司,,
宏帆路61号附近,29.586522,106.467282,一嗨租车(大川壹江城送车点),023-63276280,
梁山路246号附近,30.664168,107.792553,重庆倍优汽车租赁有限公司,,
T2航站楼对面,29.719140,106.635748,重庆江北国际机场T2租还车点,,
玉龙路608号,30.798160,108.404985,一嗨租车(万州长江之星店),023-58122859,
金港路四季花城西门处,30.768931,108.408862,一嗨租车(龙都广场送车点),023-58122859,
兰馨大道12附92号附近,29.703786,106.609132,先建租车(盛景路),023-62787585,
江南大道59号附近,30.817893,108.419149,重庆地东汽车租赁有限公司,,
月潭街221附近,31.170074,108.394069,开县真杰汽车租赁有限公司,,
武陵北路47附近,28.449510,109.013648,安程租车,18908277083,
龙都街道火车站厦门大道210号,30.758954,108.404584,卡尔菲租车,15683511918,
环城路67号西70米,31.390851,109.625760,零距离汽车租赁公司,,
高唐街道广东东路478号,31.083320,109.884102,恒辉租车,,
鱼嘴西路64号附34号,29.621503,106.761418,重庆隆泊汽车租赁有限公司,,
江南大道35号山河大厦138号,29.523828,106.572756,重庆快安汽车租赁有限公司,023-62927999,
九坑子大坪康德国际SOCO写字楼28-8,29.542966,106.517584,重庆太洋汽车租赁服务有限公司,023-63301916,18983741701
渝西大道西段162号,29.351468,105.886224,汽车租赁,,
红石路5号16-15,29.582855,106.524842,重庆甲克虫租车,023-86875430,
锦龙路39附近,29.499521,106.503897,九州出租车驾驶员俱乐部,,
红五路208号(流星花园车站旁),29.585243,106.544562,众鼎租车(红黄路),023-66662286,
马王坪正街22号附1一26,29.466955,106.536773,铄灵汽车租赁李家沱分公司,023-68839080,
洋河二路鑫显招待所南侧,29.583525,106.530681,江北辰怡租车(租车公司),18680897077,
渝航大道T3航站楼2F层,29.709246,106.655340,一嗨汽车租赁(T3航站楼),,
化龙东街与化龙南街交叉口西南50米,29.378303,106.521478,千行汽车租赁(化龙路),,
和平路207号附近,29.553667,106.568518,百安租车网约车保险代理,,
奥体五支路与长江二路交叉口西北150米,29.523518,106.508478,一嗨ehi(重庆奥体中心店),,
,29.505422,106.437728,神州租车重庆西站服务点,15683201142,
红光大道25号附15号,29.452178,106.547479,百盈汽车租赁,18983042826,
东湖南路6号云都商务酒店旁,29.602507,106.542886,慢慢开租车(重庆北站店),17725063555,
双龙西路与飞湖路交叉口东50米,29.704152,106.618501,客顺汽车租赁,023-67812353,13996281508
正舟路北段17777号四季花城门口下行50米,29.520060,108.823078,重庆鼎捷汽车经纪有限公司,,
中和街道白沙大道中段3号南区1栋一层二单元S194,28.446819,109.009589,鑫达租车(秀山五岳广场店),18325233886,
万寿大道108附近,29.990487,108.115964,重庆良玉小车租赁有限公司,13908273835,
宝华大道15-11号附11号,29.598975,106.553243,重庆市博亘汽车租赁有限公司,13212312333,
八一路238号八一广场停车库负二楼,29.555138,106.576464,神州租车(解放碑八一广场客户自助店),,
隆昌街东50米,29.697705,106.625771,重庆佳多益汽车租赁有限公司(隆昌街),,
渝南大道127附近,29.432627,106.551017,一嗨租车(花溪轻轨站送车点),023-66487604,
城东街道河滨东路北段67号,29.535138,108.778926,重庆市黔江区开吉汽车租赁有限公司,023-79233445,
金渝大道89号线外城市花园12栋13-2,29.642690,106.569986,宏创普惠网约车(汽博分公司),13370757418,
大黄路黄家码头旁(奥园康城A区),29.529808,106.524992,首汽瑞卡租车(奥园康城送车点),,
大江南大道送车点,29.387405,106.505852,一嗨租车(大江南大道送车点),023-66487604,
龙洲湾新区龙洲大道6号,29.383712,106.536345,一嗨租车(颜龙山水城送车点),023-66487604,
兰馨大道与宝桐路交叉口西南200米,29.691895,106.599784,神州租车(职教中心停车网点),,
东城街道办事处中兴东路163号,29.837128,106.063007,春来汽车租赁(中兴东路店),023-45686129,
兴科五路12号附39号,29.682483,106.593872,重庆长运集团汽车租赁分公司两江新区办事处,,
鱼胡路地铁站北100米,29.378362,106.539132,重庆市智兴汽车租赁有限公司,,
金竹轻轨站2号口,29.375343,106.523772,一嗨租车(金竹轻轨站送车点),023-66487604,
汉丰街道凤凰社区滨湖中路757号,31.176016,108.394328,腾达租车,023-85936222,
科龙路88号友豪万商城32幢1-29,30.762185,108.399213,中御租车&婚车之家(万州店),18723264022,
兴科一路265附7号,29.684320,106.603175,盼达用车(两江实验幼儿园),,
龙腾大道科园4路口朝田村188号,29.523889,106.492164,司机之家驿站租赁,,
濮岩路7号,30.006622,106.266991,大方租车(合川客运中心店),023-42813205,
五红支路国家电网客服中心内,29.586396,106.558287,盼达用车(国家电网客服中心),,
桃花大道2号附3号33西门路口下来,29.836748,107.075959,乐泰汽车租赁有限公司,13883859292,
华轩路18号至20号(石桥广场停车场),29.536627,106.492228,一嗨租车（石桥广场便捷点）,023-68037768,
云枣路2号,29.689789,106.594289,重庆净海汽车租赁有限公司,,
凯歌三支路17号附近,29.694980,106.609509,重庆耀阳汽车租赁有限公司,,
机场路170号,29.720056,106.626284,首汽租车(渝航商场送车点),,
芳菲路199号附近,29.630256,106.702111,重庆缘梦汽车租赁有限公司,,
桃源南一路与桃源大道交叉口东北100米,29.855327,107.084460,首汽租车,,
G319(厦成线)协信广场六楼B区,29.846506,107.084062,大喇叭汽车租赁有限公司,023-40242333,
民兴路18-附8号附近,29.283597,106.567205,重庆嘉龙汽车租赁有限公司,,
一环南路西段与南门巷交叉口西南50米,29.695007,105.710529,荣亿汽车租赁,023-43792148,18183030148
西郊路34号圣悦新都小区露天停车场,29.499047,106.506155,神州租车(圣悦新都停车网点),023-86378929,
百安大道,30.760755,108.447045,凯迪汽车租赁公司,023-58541517,023-58541417
江南大道10号万达艾美酒店大堂门口,29.524207,106.570758,神州租车(南坪万达艾美酒店送车点),023-62753912,
太极大道76号附近,29.699800,107.377044,重庆博行汽车租赁有限公司,,
渝南大道70号典雅戴斯酒店,29.461321,106.560682,盼达用车(典雅戴斯酒店),,
湖津路68-101号附近,29.657744,106.558217,挖机租赁,,
红锦大道57号嘉州协信中心B栋617,29.589354,106.524100,重庆润典汽车租赁有限公司,023-81304031,
安顺路1号,30.765844,108.442473,一嗨租车(万州汽车南站送车点),023-58122859,
沙北街同创小区,29.570528,106.461703,神州租车(重庆大学送车点),,
黄山大道中段电力科学研究院内,29.616182,106.482472,盼达用车(电力科学研究院),,
昌州大道东段561号,29.361263,105.925849,鼎炫租车(红河大道),18716767645,17784333222
汇龙大道580号,29.351983,105.924454,鼎炫租车(汇龙大道店),18584531696,023-49333319
仙桃街道红叶路1号雾都宾馆太阳城付楼2号,29.603876,106.530389,重庆乐游汽车租赁有限公司,,
南津街街道江城大道378号,29.972678,106.278962,宏达租车,023-42731133,18983168111
上什字西路107号,29.976471,106.262656,致远租车,,
新南路184号22-16,29.602741,106.495930,重庆明途汽车租赁有限公司,023-67452888,
金港路23号附近,30.769463,108.408921,千德租车,,
高笋塘路18号附近,29.701456,107.399017,旺宏顺汽车租赁办公室,,
金山大道668号力帆发动机进门左侧,29.681722,106.538595,盼达用车(黄茅坪金山站),,
百安大道104附近,30.757713,108.437297,富磊汽车租赁,,
何家坝路14附近,28.823343,108.772759,酉阳县欢乐汽车租赁有限公司,023-75769555,023-75769333
西园路65号,29.278206,106.255051,安责存租车,023-47519036,18883290383
万安街道城南花园大门右边第四个门面,29.984744,108.108996,港九大众租赁行,,
红庙路2号,29.990290,108.111735,通达汽车租赁有限公司,023-73379118,
光明路69号,29.533400,108.785031,重庆有诺车友俱乐部有限公司,,
汉渝路18附14号,29.557792,106.467544,重庆富荔源商贸有限公司,023-65335899,13658361188
凯歌三支路金兰路公共停车场,29.695306,106.605093,盼达用车(金兰路停车场),,
西永交通枢纽站内,29.612184,106.383380,盼达用车(西永交通枢纽站),,
龙山路6附近,29.590740,106.503075,瑞卡,,
人民西路588号,29.359874,105.922794,神州租车(永川金港明珠店),023-49822260,4006166666
洋河四路力帆足球俱乐部旁停车场,29.584202,106.533801,盼达用车(力帆足球俱乐部),,
桃花源大道南路与武鞍路交叉口西150米,28.827068,108.771033,顺昌租车,13709484186,
学府大道51号附40号,29.500305,106.573843,一嗨租车(南坪六公里店),4008886608,
兴民路1号附7号,29.832792,107.068395,康庄汽车租赁公司,023-64095100,18996080577
青羊宫路与高笋塘后街交叉口东50米,30.810039,108.374090,上下汽车租赁,13594708555,
渝州路59号,29.535044,106.492015,一嗨租车(石桥广场送车点),023-68037768,
红枫路9号2号,29.606001,106.535552,重庆鹏腾汽车租赁有限公司,,
小龙坎正街88号东原ARC中央广场旁石碾盘社会停车场内,29.551243,106.459791,神州租车(小龙坎东原ARC广场客户自助店),15683049319,
重庆渝北区庐山大道,29.612913,106.548059,一嗨租车(重庆北站便捷点),023-63067217,
花卉园西一路18号,29.581580,106.510243,重庆市长茂出租汽车有限责任公司,,
昌龙大道340-2-1号附近,29.413159,105.616894,重庆运福汽车租赁公司,,
昌州大道中段与滨河东路交叉口西50米,29.402118,105.604025,瑞纳租车,18202337155,18983848881
光电路26号附42号,29.520420,106.543094,神驹租车,023-62885988,15870444999
桃花源南路124号附近,28.827650,108.770963,巨酉租车行,,
桃源大道6号附69号2层,29.856519,107.084822,包记租车,023-40237772,
菩提街道桃源西四路1号51幢1-9,29.854158,107.068001,润厚租车(长寿古镇店),023-40660888,18182355000
开州区滨湖中路737附近,31.176164,108.394198,鹏达租车,,
桃花源镇酉兴路39号,28.858931,108.769202,凯安汽车租赁,,
酉兴路38号附近,28.858789,108.769212,时驷驱租车,,
双江镇大雁路545号,30.933536,108.689469,平安汽车租赁(云阳店),023-55999910,
九龙路422附近,31.176009,108.396728,创州汽车租赁,,
桃花源大道南路373号附近,28.824248,108.775179,顺心租车,,
滨湖西路269附近,31.165496,108.374474,隆众汽车租赁,,
棉花地小区A栋,30.823125,108.382750,大方租车,,
花鼓园路49附近,29.537918,108.781854,豪义汽车租赁,,
城墙路271号附近,29.529956,108.789175,跃飞汽车,,
江南新区南滨路滨江一号B区,30.803617,108.399555,欣新房车,,
天城大道220号附近,30.826801,108.375296,鸿运租赁,,
沙龙路3段238号附近,30.777132,108.390526,繁欣汽车租赁,,
静园路899附近,30.800513,108.384013,汽车租赁,,
,29.504529,108.814931,旭途汽车租赁,,
亿丰汽贸城6-112号,31.024533,109.428893,毛豆新车网(奉节店),,
开州区百成街54号附近,31.165752,108.406490,宏远租车,,
中和街道230号松柏骨科医院对面,28.454370,109.001966,旗静汽车租赁,,
迎凤路230号西南80米,28.453740,109.001545,王氏汽车租赁有限公司,,
迎凤路277号南90米,28.462117,109.003125,林军汽车租赁,,
南城大道245-10号,29.525051,106.557212,川安汽车租赁,,
外贸路西50米,30.767746,108.399393,启顺租车(外贸路),,
安顺路172号附近,30.763381,108.445415,启顺汽车租赁,18723557603,13628418499
鱼洞都汇里B栋16-8号,29.380516,106.527189,重庆守询商贸有限公司,023-81217118,
亚太路9号附81号玖玺写字楼6栋17-10号,29.535759,106.559628,重庆优翔汽车租赁有限公司,15523456270,13996081110
塘坊大道与高铁立交交叉口西北150米附近,30.861551,108.374477,达的租车,,
兴龙大道附近,29.327659,105.940036,津航顺汽车租赁有限公司,,
汇龙大道7号-附1号附近,29.360359,105.918166,重庆市永川建星汽车租赁,,
108省道北50米,29.351770,105.943779,换补胎租车,,
巴县大道109号附12-13号,29.385386,106.511022,威通汽车租赁,023-66236099,
五洲女子医院门口,29.527707,106.513963,一嗨租车(袁家岗轻轨站送车点),023-68627015,
界石镇富城路88号附41号,29.387449,106.602892,首信网约车,,
兴华中路63号附1号(消防队公交车站旁),29.704368,107.386049,神州租车(消防队送车点),,
凤天大道146号附6号,29.526049,106.448517,重庆四海汽车租赁有限公司,,
潼南区民业街56号西北60米,30.187042,105.847499,重庆交运网约车租赁公司,,
箭河路鱼洞金竹轻轨站3号出口,29.375740,106.523313,巴南亿成租车公司,,
鱼轻路32附近,29.379952,106.517177,红韵汽车租赁,023-66294677,15223381156
丹回路10号2单元,29.508162,106.551582,重庆骏霸汽车租赁有限公司,,
陈家桥镇怡鑫花园B区平街永辉超市旁,29.621345,106.337832,神州租车(嘉和康桥永辉超市送车点),,
民族路109号附近,29.295695,108.165543,彭水县烎赟商贸有限公司,,
谭家湾路59附近,29.533171,108.780957,驰恒汽车租赁有限公司,,
芙蓉西路102号附近,29.328414,107.740328,宏展租车,18996776669,13896541093
河滨南路东段238附近,29.520153,108.793584,汽车出租,,
天城大道916号附近,30.845815,108.371053,万运租车,023-58126678,18323721678
东圣街727号,30.171063,105.840408,航福汽车租赁,,
新华大道西段136号附近,29.528175,108.763239,云松汽车租赁,,
迎宾大道西200米,29.527613,108.757011,腾迈汽车租赁,,
集体社区4组流泊水前60米,30.350613,107.343294,天天快乐租车公司,18996766888,
开州区杨柳路347南60米,31.167013,108.407292,天天租车,,
夔州东路,31.023747,109.483069,夔意租车,023-56655557,
建新南路18号,29.566298,106.537000,中远大昌汽车租赁(重庆分公司),,
马镇坝新城幼儿园楼下,31.395141,109.566929,重庆谦聚汽车租赁有限公司,13220225333,
城北隧道,29.303386,108.170541,旅行者汽车租赁,,
丝绸路,29.994078,108.120923,玖玖约车,,
州屏中路34附近,30.294424,108.033259,锦诚汽车租赁,,
高阳路313号,29.960367,106.277710,一嗨租车（合川站便捷点）,15111973462,
人民西路190-65号附近,30.673348,107.791407,顺顺汽车租赁有限公司,15084410723,
黔龙街41号附近,29.526219,108.776592,优捷汽车租赁,,
城西六路99号附近,29.530605,108.768850,安周汽车租赁有限公司,,
安康街274号附近,31.173983,108.396047,速顺租车,,
东城街道办事处东金华社区4组6号,29.143141,107.144500,轮挖出租(韦坤江),15123660232,
南山中路与南山中路二街交叉口东50米,31.160391,108.398593,隆众租赁,,
静园路1225号滨江名都B栋2号,30.800148,108.386309,鑫磊租车,13320315566,
北山大道190号附近,30.821654,108.389418,雄鹰汽车租赁,,
塘坊路37号附近,30.918714,108.725761,宜信汽车租赁,,
,29.243586,107.286283,汽车租赁,,
乌宝路8号附4号,29.693929,107.393186,捷驰租车,,
月潭街与月潭街北六路交叉口东50米,31.170472,108.393810,鑫鹏租车,,
安康街与月潭街北九路交叉口东50米,31.174146,108.395730,前华租车,,
北城大道和香山路的交叉口附近,30.941867,108.704852,汽车租赁,,
迎凤路230号西南80米,28.453740,109.001545,专业洗车,,
昌州大道中段354附近,29.400170,105.597646,富吉旅游包车婚庆租车,,
迎凤路353附近,28.469852,109.004987,汽车租赁,,
云台路36附近,30.135283,107.209182,乐泰租车,,
滨江大道10附近,29.710602,107.397407,汽车租赁会所,,
广场路131附近,29.701834,107.393491,福临租车,,
宝城路与昌州大道中段交叉口北50米,29.400877,105.585193,宏博汽车租赁,023-46763168,18983139028
石城路与福建大街交叉口西100米,30.839509,108.367582,久久通汽车租赁,,
滨江大道北100米,31.018911,109.399659,夔勤租车,,
长征北路81号附近,29.529676,108.782844,汽车出租,,
中南路676号鸿星幼儿园正对面,29.826927,106.066683,小强车行,,
荣滨北路西段,29.408713,105.582609,顺利驰汽车租赁,15086734905,
书院街与北街交叉口东50米,30.333306,107.354713,天天快乐汽车租赁行,,
兴科三路与海福路交叉口西北50米,29.680958,106.599047,重庆百事得汽车租赁有限公司,,
北滨路296附近,29.557000,106.524968,一点租车(江北金源时代广场店),,
朝阳路38号附近,29.867306,107.082307,顺利汽车租赁,,
兴龙大道,29.356312,105.942622,广汽租赁(永川佳沃店),,
长寿路7号东北70米,29.835878,107.076023,路途租车,,
一环路附近,29.341387,105.867343,吊车出租,,
石嘴街30附近,29.296698,108.167274,渝彭汽租,,
石嘴街46号附近,29.296701,108.167269,滴滴出行,,
武陵路189号,29.586221,106.519287,友联出租,,
北门街123号附近,29.296424,108.165341,起点汽车租赁公司,,
金山大道31附近,29.152759,107.085081,别致租车(凯撒分店),,
龙水镇龙古路208号,29.555902,105.765465,双桥驾校20分校,,
火车站大道32附近,29.146121,107.105862,陆远汽车租赁,,
何家坝路375附近,28.807966,108.781851,壹客行汽车租赁,,
广场环路12号-附22号西80米,29.704161,107.393169,欣欣汽车租赁公司,,
龙水汽车站红绿灯旁龙水路,29.554959,105.764448,荣亿汽车租赁,18883588891,
忠州街道红星路36号附34号,30.308890,108.047732,君芝莱汽车租赁,,
